{"type": "FeatureCollection", "features": [ {"type": "Feature", "properties": {"norad_id": 66589, "name": "STARLINK-35447", "group": "last-30-days", "lat": -39.17010460286114, "lon": 143.1691882818623, "alt_km": 416.8780126210868, "timestamp": "2025-12-10T18:56:58.833480+00:00", "meta": {"OBJECT_NAME": "STARLINK-35447", "OBJECT_ID": "2025-270B", "EPOCH": "2025-12-10T12:00:02.998944", "MEAN_MOTION": 15.51072469, "ECCENTRICITY": 0.0002186, "INCLINATION": 42.9999, "RA_OF_ASC_NODE": 205.826, "ARG_OF_PERICENTER": 256.6936, "MEAN_ANOMALY": 217.0113, "EPHEMERIS_TYPE": 0, "CLASSIFICATION_TYPE": "U", "NORAD_CAT_ID": 66589, "ELEMENT_SET_NO": 999, "REV_AT_EPOCH": 414, "BSTAR": -0.013559, "MEAN_MOTION_DOT": -0.00747598, "MEAN_MOTION_DDOT": 0}, "tle": {"line1": "1 66589U 25270B   25344.50003471 -.00747598  00000+0 -13559-1 0  9993", "line2": "2 66589  42.9999 205.8260 0002186 256.6936 217.0113 15.51072469  4149"}}, "geometry": {"type": "Point", "coordinates": [143.1691882818623, -39.17010460286114]}}, {"type": "Feature", "properties": {"norad_id": 66590, "name": "STARLINK-35429", "group": "last-30-days", "lat": -39.779962853193695, "lon": 140.82348620413524, "alt_km": 416.87067973992816, "timestamp": "2025-12-10T18:56:58.833490+00:00", "meta": {"OBJECT_NAME": "STARLINK-35429", "OBJECT_ID": "2025-270C", "EPOCH": "2025-12-10T12:00:02.998944", "MEAN_MOTION": 15.5107443, "ECCENTRICITY": 0.0002219, "INCLINATION": 42.9998, "RA_OF_ASC_NODE": 205.8312, "ARG_OF_PERICENTER": 255.7953, "MEAN_ANOMALY": 215.9914, "EPHEMERIS_TYPE": 0, "CLASSIFICATION_TYPE": "U", "NORAD_CAT_ID": 66590, "ELEMENT_SET_NO": 999, "REV_AT_EPOCH": 414, "BSTAR": -0.013606, "MEAN_MOTION_DOT": -0.00750057, "MEAN_MOTION_DDOT": 0}, "tle": {"line1": "1 66590U 25270C   25344.50003471 -.00750057  00000+0 -13606-1 0  9992", "line2": "2 66590  42.9998 205.8312 0002219 255.7953 215.9914 15.51074430  4140"}}, "geometry": {"type": "Point", "coordinates": [140.82348620413524, -39.779962853193695]}}, {"type": "Feature", "properties": {"norad_id": 66591, "name": "STARLINK-36058", "group": "last-30-days", "lat": -38.51456359167337, "lon": 145.47103368113522, "alt_km": 416.870701978296, "timestamp": "2025-12-10T18:56:58.833499+00:00", "meta": {"OBJECT_NAME": "STARLINK-36058", "OBJECT_ID": "2025-270D", "EPOCH": "2025-12-10T12:00:02.998944", "MEAN_MOTION": 15.51064262, "ECCENTRICITY": 0.0002108, "INCLINATION": 43, "RA_OF_ASC_NODE": 205.8213, "ARG_OF_PERICENTER": 260.2527, "MEAN_ANOMALY": 215.3732, "EPHEMERIS_TYPE": 0, "CLASSIFICATION_TYPE": "U", "NORAD_CAT_ID": 66591, "ELEMENT_SET_NO": 999, "REV_AT_EPOCH": 404, "BSTAR": -0.013348, "MEAN_MOTION_DOT": -0.00736638, "MEAN_MOTION_DDOT": 0}, "tle": {"line1": "1 66591U 25270D   25344.50003471 -.00736638  00000+0 -13348-1 0  9995", "line2": "2 66591  43.0000 205.8213 0002108 260.2527 215.3732 15.51064262  4045"}}, "geometry": {"type": "Point", "coordinates": [145.47103368113522, -38.51456359167337]}}, {"type": "Feature", "properties": {"norad_id": 66592, "name": "STARLINK-36066", "group": "last-30-days", "lat": -37.8125464765403, "lon": 147.735256294126, "alt_km": 416.91476854467965, "timestamp": "2025-12-10T18:56:58.833510+00:00", "meta": {"OBJECT_NAME": "STARLINK-36066", "OBJECT_ID": "2025-270E", "EPOCH": "2025-12-10T12:00:02.998944", "MEAN_MOTION": 15.51068918, "ECCENTRICITY": 0.0002121, "INCLINATION": 42.9998, "RA_OF_ASC_NODE": 205.8165, "ARG_OF_PERICENTER": 256.5567, "MEAN_ANOMALY": 220.9844, "EPHEMERIS_TYPE": 0, "CLASSIFICATION_TYPE": "U", "NORAD_CAT_ID": 66592, "ELEMENT_SET_NO": 999, "REV_AT_EPOCH": 394, "BSTAR": -0.01348, "MEAN_MOTION_DOT": -0.00743507, "MEAN_MOTION_DDOT": 0}, "tle": {"line1": "1 66592U 25270E   25344.50003471 -.00743507  00000+0 -13480-1 0  9996", "line2": "2 66592  42.9998 205.8165 0002121 256.5567 220.9844 15.51068918  3949"}}, "geometry": {"type": "Point", "coordinates": [147.735256294126, -37.8125464765403]}}, {"type": "Feature", "properties": {"norad_id": 66593, "name": "STARLINK-36031", "group": "last-30-days", "lat": -37.07284916733464, "lon": 149.94118479546768, "alt_km": 417.30039969002246, "timestamp": "2025-12-10T18:56:58.833519+00:00", "meta": {"OBJECT_NAME": "STARLINK-36031", "OBJECT_ID": "2025-270F", "EPOCH": "2025-12-10T12:00:02.998944", "MEAN_MOTION": 15.51061533, "ECCENTRICITY": 0.0001817, "INCLINATION": 42.9997, "RA_OF_ASC_NODE": 205.8115, "ARG_OF_PERICENTER": 245.8694, "MEAN_ANOMALY": 233.5911, "EPHEMERIS_TYPE": 0, "CLASSIFICATION_TYPE": "U", "NORAD_CAT_ID": 66593, "ELEMENT_SET_NO": 999, "REV_AT_EPOCH": 404, "BSTAR": -0.013801, "MEAN_MOTION_DOT": -0.00759595, "MEAN_MOTION_DDOT": 0}, "tle": {"line1": "1 66593U 25270F   25344.50003471 -.00759595  00000+0 -13801-1 0  9998", "line2": "2 66593  42.9997 205.8115 0001817 245.8694 233.5911 15.51061533  4040"}}, "geometry": {"type": "Point", "coordinates": [149.94118479546768, -37.07284916733464]}}, {"type": "Feature", "properties": {"norad_id": 66594, "name": "STARLINK-36032", "group": "last-30-days", "lat": -36.284711876881666, "lon": 152.1252791910062, "alt_km": 416.8923685121563, "timestamp": "2025-12-10T18:56:58.833557+00:00", "meta": {"OBJECT_NAME": "STARLINK-36032", "OBJECT_ID": "2025-270G", "EPOCH": "2025-12-10T12:00:02.998944", "MEAN_MOTION": 15.5106616, "ECCENTRICITY": 0.0002121, "INCLINATION": 42.9995, "RA_OF_ASC_NODE": 205.8068, "ARG_OF_PERICENTER": 257.0946, "MEAN_ANOMALY": 224.2809, "EPHEMERIS_TYPE": 0, "CLASSIFICATION_TYPE": "U", "NORAD_CAT_ID": 66594, "ELEMENT_SET_NO": 999, "REV_AT_EPOCH": 377, "BSTAR": -0.01339, "MEAN_MOTION_DOT": -0.00738841, "MEAN_MOTION_DDOT": 0}, "tle": {"line1": "1 66594U 25270G   25344.50003471 -.00738841  00000+0 -13390-1 0  9993", "line2": "2 66594  42.9995 205.8068 0002121 257.0946 224.2809 15.51066160  3773"}}, "geometry": {"type": "Point", "coordinates": [152.1252791910062, -36.284711876881666]}}, {"type": "Feature", "properties": {"norad_id": 66595, "name": "STARLINK-35711", "group": "last-30-days", "lat": -35.45664069445797, "lon": 154.26735103629224, "alt_km": 417.51045359963246, "timestamp": "2025-12-10T18:56:58.833568+00:00", "meta": {"OBJECT_NAME": "STARLINK-35711", "OBJECT_ID": "2025-270H", "EPOCH": "2025-12-10T12:00:02.998944", "MEAN_MOTION": 15.51080353, "ECCENTRICITY": 0.0001797, "INCLINATION": 42.9997, "RA_OF_ASC_NODE": 205.8017, "ARG_OF_PERICENTER": 239.8228, "MEAN_ANOMALY": 243.4996, "EPHEMERIS_TYPE": 0, "CLASSIFICATION_TYPE": "U", "NORAD_CAT_ID": 66595, "ELEMENT_SET_NO": 999, "REV_AT_EPOCH": 414, "BSTAR": -0.015336, "MEAN_MOTION_DOT": -0.00837468, "MEAN_MOTION_DDOT": 0}, "tle": {"line1": "1 66595U 25270H   25344.50003471 -.00837468  00000+0 -15336-1 0  9991", "line2": "2 66595  42.9997 205.8017 0001797 239.8228 243.4996 15.51080353  4141"}}, "geometry": {"type": "Point", "coordinates": [154.26735103629224, -35.45664069445797]}}, {"type": "Feature", "properties": {"norad_id": 66596, "name": "STARLINK-35811", "group": "last-30-days", "lat": -34.6006537029891, "lon": 156.34270466691166, "alt_km": 416.77207335324783, "timestamp": "2025-12-10T18:56:58.833579+00:00", "meta": {"OBJECT_NAME": "STARLINK-35811", "OBJECT_ID": "2025-270J", "EPOCH": "2025-12-10T12:00:02.998944", "MEAN_MOTION": 15.51046542, "ECCENTRICITY": 0.0002337, "INCLINATION": 42.9996, "RA_OF_ASC_NODE": 205.7973, "ARG_OF_PERICENTER": 257.5715, "MEAN_ANOMALY": 227.6521, "EPHEMERIS_TYPE": 0, "CLASSIFICATION_TYPE": "U", "NORAD_CAT_ID": 66596, "ELEMENT_SET_NO": 999, "REV_AT_EPOCH": 414, "BSTAR": -0.012973, "MEAN_MOTION_DOT": -0.00717045, "MEAN_MOTION_DDOT": 0}, "tle": {"line1": "1 66596U 25270J   25344.50003471 -.00717045  00000+0 -12973-1 0  9994", "line2": "2 66596  42.9996 205.7973 0002337 257.5715 227.6521 15.51046542  4140"}}, "geometry": {"type": "Point", "coordinates": [156.34270466691166, -34.6006537029891]}}, {"type": "Feature", "properties": {"norad_id": 66597, "name": "STARLINK-35820", "group": "last-30-days", "lat": -33.707574983108486, "lon": 158.38023998175456, "alt_km": 416.9312172517066, "timestamp": "2025-12-10T18:56:58.833589+00:00", "meta": {"OBJECT_NAME": "STARLINK-35820", "OBJECT_ID": "2025-270K", "EPOCH": "2025-12-10T12:00:02.998944", "MEAN_MOTION": 15.51059871, "ECCENTRICITY": 0.0002042, "INCLINATION": 42.9997, "RA_OF_ASC_NODE": 205.7923, "ARG_OF_PERICENTER": 255.4232, "MEAN_ANOMALY": 231.7066, "EPHEMERIS_TYPE": 0, "CLASSIFICATION_TYPE": "U", "NORAD_CAT_ID": 66597, "ELEMENT_SET_NO": 999, "REV_AT_EPOCH": 414, "BSTAR": -0.013243, "MEAN_MOTION_DOT": -0.00731148, "MEAN_MOTION_DDOT": 0}, "tle": {"line1": "1 66597U 25270K   25344.50003471 -.00731148  00000+0 -13243-1 0  9996", "line2": "2 66597  42.9997 205.7923 0002042 255.4232 231.7066 15.51059871  4140"}}, "geometry": {"type": "Point", "coordinates": [158.38023998175456, -33.707574983108486]}}, {"type": "Feature", "properties": {"norad_id": 66598, "name": "STARLINK-35981", "group": "last-30-days", "lat": -32.78381707282623, "lon": 160.37020465833388, "alt_km": 417.198369883924, "timestamp": "2025-12-10T18:56:58.833599+00:00", "meta": {"OBJECT_NAME": "STARLINK-35981", "OBJECT_ID": "2025-270L", "EPOCH": "2025-12-10T12:00:02.998944", "MEAN_MOTION": 15.51064868, "ECCENTRICITY": 0.0001828, "INCLINATION": 42.9998, "RA_OF_ASC_NODE": 205.7872, "ARG_OF_PERICENTER": 247.8364, "MEAN_ANOMALY": 241.208, "EPHEMERIS_TYPE": 0, "CLASSIFICATION_TYPE": "U", "NORAD_CAT_ID": 66598, "ELEMENT_SET_NO": 999, "REV_AT_EPOCH": 388, "BSTAR": -0.013847, "MEAN_MOTION_DOT": -0.0076203, "MEAN_MOTION_DDOT": 0}, "tle": {"line1": "1 66598U 25270L   25344.50003471 -.00762030  00000+0 -13847-1 0  9991", "line2": "2 66598  42.9998 205.7872 0001828 247.8364 241.2080 15.51064868  3881"}}, "geometry": {"type": "Point", "coordinates": [160.37020465833388, -32.78381707282623]}}]}